[{"OBJECT_NAME":"QIANFAN-34","OBJECT_ID":"2024-185R","EPOCH":"2026-03-09T23:48:13.151232","MEAN_MOTION":14.02387814,"ECCENTRICITY":0.00081871,"INCLINATION":88.9718,"RA_OF_ASC_NODE":68.5076,"ARG_OF_PERICENTER":66.0949,"MEAN_ANOMALY":294.1088,"EPHEMERIS_TYPE":0,"CLASSIFICATION_TYPE":"U","NORAD_CAT_ID":61567,"ELEMENT_SET_NO":999,"REV_AT_EPOCH":8158,"BSTAR":0.00037025397,"MEAN_MOTION_DOT":5.82e-6,"MEAN_MOTION_DDOT":0},{"OBJECT_NAME":"TRANSIT 4A","OBJECT_ID":"1961-015A","EPOCH":"2026-03-09T14:59:44.564640","MEAN_MOTION":13.92312705,"ECCENTRICITY":0.0077885,"INCLINATION":66.809,"RA_OF_ASC_NODE":134.4576,"ARG_OF_PERICENTER":338.086,"MEAN_ANOMALY":21.6894,"EPHEMERIS_TYPE":0,"CLASSIFICATION_TYPE":"U","NORAD_CAT_ID":116,"ELEMENT_SET_NO":999,"REV_AT_EPOCH":28284,"BSTAR":8.1343e-5,"MEAN_MOTION_DOT":3.0e-7,"MEAN_MOTION_DDOT":0}]
